CCSDS_OMM_VERS = 2.0
CREATION_DATE  = 
ORIGINATOR     = 

OBJECT_NAME    = STARLINK-35529
OBJECT_ID      = 2025-245AB
CENTER_NAME    = EARTH
REF_FRAME      = TEME
TIME_SYSTEM    = UTC
MEAN_ELEMENT_THEORY = SGP/SGP4

EPOCH          = 2025-11-24T15:34:23.236320
MEAN_MOTION    = 15.49317506
ECCENTRICITY   = .0001307
INCLINATION    = 53.1607
RA_OF_ASC_NODE = 54.6798
ARG_OF_PERICENTER = 79.1568
MEAN_ANOMALY   = 280.9588

EPHEMERIS_TYPE = 0
CLASSIFICATION_TYPE = U
NORAD_CAT_ID   = 66259
ELEMENT_SET_NO = 999
REV_AT_EPOCH   = 513
BSTAR          = .13508E-2
MEAN_MOTION_DOT = .7543E-3
MEAN_MOTION_DDOT = 0

CCSDS_OMM_VERS = 2.0
CREATION_DATE  = 
ORIGINATOR     = 

OBJECT_NAME    = STARLINK-35420
OBJECT_ID      = 2025-245AC
CENTER_NAME    = EARTH
REF_FRAME      = TEME
TIME_SYSTEM    = UTC
MEAN_ELEMENT_THEORY = SGP/SGP4

EPOCH          = 2025-11-24T15:34:52.787712
MEAN_MOTION    = 15.49322836
ECCENTRICITY   = .000121
INCLINATION    = 53.1605
RA_OF_ASC_NODE = 54.6818
ARG_OF_PERICENTER = 97.3957
MEAN_ANOMALY   = 262.7190

EPHEMERIS_TYPE = 0
CLASSIFICATION_TYPE = U
NORAD_CAT_ID   = 66260
ELEMENT_SET_NO = 999
REV_AT_EPOCH   = 513
BSTAR          = .9525E-3
MEAN_MOTION_DOT = .52911E-3
MEAN_MOTION_DDOT = 0

CCSDS_OMM_VERS = 2.0
CREATION_DATE  = 
ORIGINATOR     = 

OBJECT_NAME    = STARLINK-35536
OBJECT_ID      = 2025-245AD
CENTER_NAME    = EARTH
REF_FRAME      = TEME
TIME_SYSTEM    = UTC
MEAN_ELEMENT_THEORY = SGP/SGP4

EPOCH          = 2025-11-24T15:33:53.601984
MEAN_MOTION    = 15.49318469
ECCENTRICITY   = .0001303
INCLINATION    = 53.1608
RA_OF_ASC_NODE = 54.6772
ARG_OF_PERICENTER = 80.4757
MEAN_ANOMALY   = 279.6400

EPHEMERIS_TYPE = 0
CLASSIFICATION_TYPE = U
NORAD_CAT_ID   = 66261
ELEMENT_SET_NO = 999
REV_AT_EPOCH   = 513
BSTAR          = .11565E-2
MEAN_MOTION_DOT = .64427E-3
MEAN_MOTION_DDOT = 0

CCSDS_OMM_VERS = 2.0
CREATION_DATE  = 
ORIGINATOR     = 

OBJECT_NAME    = STARLINK-35487
OBJECT_ID      = 2025-245AE
CENTER_NAME    = EARTH
REF_FRAME      = TEME
TIME_SYSTEM    = UTC
MEAN_ELEMENT_THEORY = SGP/SGP4

EPOCH          = 2025-11-24T15:33:23.901120
MEAN_MOTION    = 15.49325454
ECCENTRICITY   = .0001285
INCLINATION    = 53.1606
RA_OF_ASC_NODE = 54.6750
ARG_OF_PERICENTER = 86.4668
MEAN_ANOMALY   = 273.6488

EPHEMERIS_TYPE = 0
CLASSIFICATION_TYPE = U
NORAD_CAT_ID   = 66262
ELEMENT_SET_NO = 999
REV_AT_EPOCH   = 508
BSTAR          = .12231E-2
MEAN_MOTION_DOT = .68209E-3
MEAN_MOTION_DDOT = 0

CCSDS_OMM_VERS = 2.0
CREATION_DATE  = 
ORIGINATOR     = 

OBJECT_NAME    = STARLINK-35801
OBJECT_ID      = 2025-247A
CENTER_NAME    = EARTH
REF_FRAME      = TEME
TIME_SYSTEM    = UTC
MEAN_ELEMENT_THEORY = SGP/SGP4

EPOCH          = 2025-11-24T20:00:04.000032
MEAN_MOTION    = 15.39571864
ECCENTRICITY   = .0001429
INCLINATION    = 53.1603
RA_OF_ASC_NODE = 322.0192
ARG_OF_PERICENTER = 101.1497
MEAN_ANOMALY   = 127.3493

EPHEMERIS_TYPE = 0
CLASSIFICATION_TYPE = U
NORAD_CAT_ID   = 66265
ELEMENT_SET_NO = 999
REV_AT_EPOCH   = 473
BSTAR          = .23243E-2
MEAN_MOTION_DOT = .9357E-3
MEAN_MOTION_DDOT = 0

CCSDS_OMM_VERS = 2.0
CREATION_DATE  = 
ORIGINATOR     = 

OBJECT_NAME    = STARLINK-35056
OBJECT_ID      = 2025-247B
CENTER_NAME    = EARTH
REF_FRAME      = TEME
TIME_SYSTEM    = UTC
MEAN_ELEMENT_THEORY = SGP/SGP4

EPOCH          = 2025-11-24T20:00:04.000032
MEAN_MOTION    = 15.39569495
ECCENTRICITY   = .0001574
INCLINATION    = 53.1606
RA_OF_ASC_NODE = 322.0149
ARG_OF_PERICENTER = 85.8835
MEAN_ANOMALY   = 144.4815

EPHEMERIS_TYPE = 0
CLASSIFICATION_TYPE = U
NORAD_CAT_ID   = 66266
ELEMENT_SET_NO = 999
REV_AT_EPOCH   = 501
BSTAR          = .23054E-2
MEAN_MOTION_DOT = .92788E-3
MEAN_MOTION_DDOT = 0

CCSDS_OMM_VERS = 2.0
CREATION_DATE  = 
ORIGINATOR     = 

OBJECT_NAME    = STARLINK-35550
OBJECT_ID      = 2025-247C
CENTER_NAME    = EARTH
REF_FRAME      = TEME
TIME_SYSTEM    = UTC
MEAN_ELEMENT_THEORY = SGP/SGP4

EPOCH          = 2025-11-24T20:00:04.000032
MEAN_MOTION    = 15.47070157
ECCENTRICITY   = .0001208
INCLINATION    = 53.1592
RA_OF_ASC_NODE = 320.6393
ARG_OF_PERICENTER = 104.6840
MEAN_ANOMALY   = 78.8402

EPHEMERIS_TYPE = 0
CLASSIFICATION_TYPE = U
NORAD_CAT_ID   = 66267
ELEMENT_SET_NO = 999
REV_AT_EPOCH   = 468
BSTAR          = -.44769E-1
MEAN_MOTION_DOT = -.2049366E-1
MEAN_MOTION_DDOT = 0

CCSDS_OMM_VERS = 2.0
CREATION_DATE  = 
ORIGINATOR     = 

OBJECT_NAME    = STARLINK-35069
OBJECT_ID      = 2025-247D
CENTER_NAME    = EARTH
REF_FRAME      = TEME
TIME_SYSTEM    = UTC
MEAN_ELEMENT_THEORY = SGP/SGP4

EPOCH          = 2025-11-24T20:00:04.000032
MEAN_MOTION    = 15.39566923
ECCENTRICITY   = .0001619
INCLINATION    = 53.1608
RA_OF_ASC_NODE = 321.9662
ARG_OF_PERICENTER = 81.6847
MEAN_ANOMALY   = 172.5690

EPHEMERIS_TYPE = 0
CLASSIFICATION_TYPE = U
NORAD_CAT_ID   = 66268
ELEMENT_SET_NO = 999
REV_AT_EPOCH   = 496
BSTAR          = .2282E-2
MEAN_MOTION_DOT = .91822E-3
MEAN_MOTION_DDOT = 0

CCSDS_OMM_VERS = 2.0
CREATION_DATE  = 
ORIGINATOR     = 

OBJECT_NAME    = STARLINK-34910
OBJECT_ID      = 2025-247E
CENTER_NAME    = EARTH
REF_FRAME      = TEME
TIME_SYSTEM    = UTC
MEAN_ELEMENT_THEORY = SGP/SGP4

EPOCH          = 2025-11-24T20:00:04.000032
MEAN_MOTION    = 15.47078146
ECCENTRICITY   = .0001194
INCLINATION    = 53.1593
RA_OF_ASC_NODE = 320.6432
ARG_OF_PERICENTER = 89.9231
MEAN_ANOMALY   = 91.6963

EPHEMERIS_TYPE = 0
CLASSIFICATION_TYPE = U
NORAD_CAT_ID   = 66269
ELEMENT_SET_NO = 999
REV_AT_EPOCH   = 501
BSTAR          = -.44847E-1
MEAN_MOTION_DOT = -.2053022E-1
MEAN_MOTION_DDOT = 0

CCSDS_OMM_VERS = 2.0
CREATION_DATE  = 
ORIGINATOR     = 

OBJECT_NAME    = STARLINK-35757
OBJECT_ID      = 2025-247F
CENTER_NAME    = EARTH
REF_FRAME      = TEME
TIME_SYSTEM    = UTC
MEAN_ELEMENT_THEORY = SGP/SGP4

EPOCH          = 2025-11-24T20:00:04.000032
MEAN_MOTION    = 15.39568417
ECCENTRICITY   = .0001698
INCLINATION    = 53.1607
RA_OF_ASC_NODE = 321.9632
ARG_OF_PERICENTER = 76.4182
MEAN_ANOMALY   = 179.6959

EPHEMERIS_TYPE = 0
CLASSIFICATION_TYPE = U
NORAD_CAT_ID   = 66270
ELEMENT_SET_NO = 999
REV_AT_EPOCH   = 506
BSTAR          = .2454E-2
MEAN_MOTION_DOT = .98872E-3
MEAN_MOTION_DDOT = 0

CCSDS_OMM_VERS = 2.0
CREATION_DATE  = 
ORIGINATOR     = 

OBJECT_NAME    = STARLINK-35745
OBJECT_ID      = 2025-247G
CENTER_NAME    = EARTH
REF_FRAME      = TEME
TIME_SYSTEM    = UTC
MEAN_ELEMENT_THEORY = SGP/SGP4

EPOCH          = 2025-11-24T20:00:04.000032
MEAN_MOTION    = 15.39563013
ECCENTRICITY   = .0001145
INCLINATION    = 53.1606
RA_OF_ASC_NODE = 321.9155
ARG_OF_PERICENTER = 92.5941
MEAN_ANOMALY   = 187.4144

EPHEMERIS_TYPE = 0
CLASSIFICATION_TYPE = U
NORAD_CAT_ID   = 66271
ELEMENT_SET_NO = 999
REV_AT_EPOCH   = 506
BSTAR          = .22913E-2
MEAN_MOTION_DOT = .92193E-3
MEAN_MOTION_DDOT = 0

CCSDS_OMM_VERS = 2.0
CREATION_DATE  = 
ORIGINATOR     = 

OBJECT_NAME    = STARLINK-35741
OBJECT_ID      = 2025-247H
CENTER_NAME    = EARTH
REF_FRAME      = TEME
TIME_SYSTEM    = UTC
MEAN_ELEMENT_THEORY = SGP/SGP4

EPOCH          = 2025-11-24T20:00:04.000032
MEAN_MOTION    = 15.39566175
ECCENTRICITY   = .0001661
INCLINATION    = 53.1605
RA_OF_ASC_NODE = 321.9116
ARG_OF_PERICENTER = 86.8958
MEAN_ANOMALY   = 194.9765

EPHEMERIS_TYPE = 0
CLASSIFICATION_TYPE = U
NORAD_CAT_ID   = 66272
ELEMENT_SET_NO = 999
REV_AT_EPOCH   = 506
BSTAR          = .23063E-2
MEAN_MOTION_DOT = .92817E-3
MEAN_MOTION_DDOT = 0

