STARLINK-35529          
1 66259U 25245AB  25328.64888005  .00075430  00000+0  13508-2 0  9992
2 66259  53.1607  54.6798 0001307  79.1568 280.9588 15.49317506  5138
STARLINK-35420          
1 66260U 25245AC  25328.64922208  .00052911  00000+0  95250-3 0  9992
2 66260  53.1605  54.6818 0001210  97.3957 262.7190 15.49322836  5137
STARLINK-35536          
1 66261U 25245AD  25328.64853706  .00064427  00000+0  11565-2 0  9990
2 66261  53.1608  54.6772 0001303  80.4757 279.6400 15.49318469  5132
STARLINK-35487          
1 66262U 25245AE  25328.64819330  .00068209  00000+0  12231-2 0  9999
2 66262  53.1606  54.6750 0001285  86.4668 273.6488 15.49325454  5089
STARLINK-35801          
1 66265U 25247A   25328.83337963  .00093570  00000+0  23243-2 0  9996
2 66265  53.1603 322.0192 0001429 101.1497 127.3493 15.39571864  4735
STARLINK-35056          
1 66266U 25247B   25328.83337963  .00092788  00000+0  23054-2 0  9997
2 66266  53.1606 322.0149 0001574  85.8835 144.4815 15.39569495  5013
STARLINK-35550          
1 66267U 25247C   25328.83337963 -.02049366  00000+0 -44769-1 0  9991
2 66267  53.1592 320.6393 0001208 104.6840  78.8402 15.47070157  4688
STARLINK-35069          
1 66268U 25247D   25328.83337963  .00091822  00000+0  22820-2 0  9997
2 66268  53.1608 321.9662 0001619  81.6847 172.5690 15.39566923  4961
STARLINK-34910          
1 66269U 25247E   25328.83337963 -.02053022  00000+0 -44847-1 0  9994
2 66269  53.1593 320.6432 0001194  89.9231  91.6963 15.47078146  5017
STARLINK-35757          
1 66270U 25247F   25328.83337963  .00098872  00000+0  24540-2 0  9993
2 66270  53.1607 321.9632 0001698  76.4182 179.6959 15.39568417  5069
STARLINK-35745          
1 66271U 25247G   25328.83337963  .00092193  00000+0  22913-2 0  9996
2 66271  53.1606 321.9155 0001145  92.5941 187.4144 15.39563013  5068
STARLINK-35741          
1 66272U 25247H   25328.83337963  .00092817  00000+0  23063-2 0  9997
2 66272  53.1605 321.9116 0001661  86.8958 194.9765 15.39566175  5066
